NORAD_CAT_ID,OBJECT_NAME,OBJECT_TYPE,EPOCH,MEAN_MOTION,ECCENTRICITY,INCLINATION,RA_OF_ASC_NODE,ARG_OF_PERICENTER,MEAN_ANOMALY,BSTAR,MEAN_MOTION_DOT,MEAN_MOTION_DDOT,TLE_LINE0,TLE_LINE1,TLE_LINE2,SEMIMAJOR_AXIS,PERIOD,APOGEE,PERIGEE,DECAYED
54084.0,STARLINK-5183,PAYLOAD,2023-06-09 16:43:36,15.08838212,0.0001016,53.2141,161.3339,75.7028,284.4077,1.056e-05,-1.2e-06,0.0,0 STARLINK-5183,1 54084U 22136AK  23160.69694776 -.00000120  00000-0  10560-4 0  9991,2 54084  53.2141 161.3339 0001016  75.7028 284.4077 15.08838212 35415,6917.886,95.438,540.454,539.048,0.0
54084.0,STARLINK-5183,PAYLOAD,2023-06-10 03:51:18,15.08834212,0.0001124,53.2158,159.2545,84.4102,275.7018,4.0854e-05,3.62e-06,0.0,0 STARLINK-5183,1 54084U 22136AK  23161.16063137  .00000362  00000-0  40854-4 0  9991,2 54084  53.2158 159.2545 0001124  84.4102 275.7018 15.08834212 35962,6917.898,95.438,540.541,538.986,0.0
54084.0,STARLINK-5183,PAYLOAD,2023-06-10 07:02:04,15.08834087,0.0001124,53.2157,158.6595,84.104,276.008,3.7532e-05,3.09e-06,0.0,0 STARLINK-5183,1 54084U 22136AK  23161.29311202  .00000309  00000-0  37532-4 0  9994,2 54084  53.2157 158.6595 0001124  84.1040 276.0080 15.08834087 35500,6917.898,95.438,540.541,538.986,0.0
54084.0,STARLINK-5183,PAYLOAD,2023-06-11 08:28:15,15.08838147,0.0001148,53.2158,153.9017,83.2552,276.8571,3.8378e-05,3.23e-06,0.0,0 STARLINK-5183,1 54084U 22136AK  23162.35295297  .00000323  00000-0  38378-4 0  9992,2 54084  53.2158 153.9017 0001148  83.2552 276.8571 15.08838147 36147,6917.886,95.438,540.545,538.957,0.0
54084.0,STARLINK-5183,PAYLOAD,2023-06-11 22:46:43,15.08838547,0.000118,53.2161,151.2249,84.1236,275.989,6.9598e-05,8.2e-06,0.0,0 STARLINK-5183,1 54084U 22136AK  23162.94911275  .00000820  00000-0  69598-4 0  9998,2 54084  53.2161 151.2249 0001180  84.1236 275.9890 15.08838547 35758,6917.885,95.438,540.566,538.934,0.0
54084.0,STARLINK-5183,PAYLOAD,2023-06-12 16:15:57,15.08838693,0.0001162,53.2159,147.9539,85.229,274.8835,6.7177e-05,7.81e-06,0.0,0 STARLINK-5183,1 54084U 22136AK  23163.67775295  .00000781  00000-0  67177-4 0  9996,2 54084  53.2159 147.9539 0001162  85.2290 274.8835 15.08838693 36346,6917.884,95.438,540.553,538.946,0.0
54084.0,STARLINK-5183,PAYLOAD,2023-06-12 22:37:30,15.08838108,0.000124,53.2162,146.7657,82.8881,277.2253,3.6375e-05,2.91e-06,0.0,0 STARLINK-5183,1 54084U 22136AK  23163.94271530  .00000291  00000-0  36375-4 0  9991,2 54084  53.2162 146.7657 0001240  82.8881 277.2253 15.08838108 35907,6917.886,95.438,540.609,538.893,0.0
54084.0,STARLINK-5183,PAYLOAD,2023-06-13 08:09:49,15.08837844,0.0001329,53.2166,144.9807,84.0019,276.1125,3.6005e-05,2.85e-06,0.0,0 STARLINK-5183,1 54084U 22136AK  23164.34015608  .00000285  00000-0  36005-4 0  9991,2 54084  53.2166 144.9807 0001329  84.0019 276.1125 15.08837844 35961,6917.887,95.438,540.671,538.833,0.0
54084.0,STARLINK-5183,PAYLOAD,2023-06-14 08:00:36,15.08842596,0.0001312,53.2161,140.5191,87.6092,272.5051,3.3851e-05,2.51e-06,0.0,0 STARLINK-5183,1 54084U 22136AK  23165.33375345  .00000251  00000-0  33851-4 0  9997,2 54084  53.2161 140.5191 0001312  87.6092 272.5051 15.08842596 36594,6917.872,95.437,540.645,538.83,0.0
54084.0,STARLINK-5183,PAYLOAD,2023-06-14 15:57:32,15.0884005,0.0001305,53.2162,139.0321,88.2165,271.8977,4.02e-05,3.52e-06,0.0,0 STARLINK-5183,1 54084U 22136AK  23165.66495455  .00000352  00000-0  40200-4 0  9996,2 54084  53.2162 139.0321 0001305  88.2165 271.8977 15.08840050 36168,6917.88,95.438,540.648,538.842,0.0
54084.0,STARLINK-5183,PAYLOAD,2023-06-15 07:51:23,15.08840779,0.0001342,53.2162,136.058,91.0259,269.0887,5.6968e-05,6.19e-06,0.0,0 STARLINK-5183,1 54084U 22136AK  23166.32735365  .00000619  00000-0  56968-4 0  9991,2 54084  53.2162 136.0580 0001342  91.0259 269.0887 15.08840779 36267,6917.878,95.438,540.671,538.815,0.0
54084.0,STARLINK-5183,PAYLOAD,2023-06-16 01:20:38,15.08837006,0.0001374,53.2165,132.7863,92.8687,267.2462,1.103e-05,-1.12e-06,0.0,0 STARLINK-5183,1 54084U 22136AK  23167.05599836 -.00000112  00000-0  11030-4 0  9993,2 54084  53.2165 132.7863 0001374  92.8687 267.2462 15.08837006 36859,6917.89,95.438,540.705,538.804,0.0
54084.0,STARLINK-5183,PAYLOAD,2023-06-16 02:56:01,15.08838867,0.0001342,53.2163,132.489,91.7188,268.3957,2.4206e-05,9.7e-07,0.0,0 STARLINK-5183,1 54084U 22136AK  23167.12223694  .00000097  00000-0  24206-4 0  9997,2 54084  53.2163 132.4890 0001342  91.7188 268.3957 15.08838867 36388,6917.884,95.438,540.677,538.82,0.0
54084.0,STARLINK-5183,PAYLOAD,2023-06-16 14:03:42,15.08842595,0.0001338,53.2163,130.4075,91.1559,268.9587,5.0991e-05,5.24e-06,0.0,0 STARLINK-5183,1 54084U 22136AK  23167.58591342  .00000524  00000-0  50991-4 0  9990,2 54084  53.2163 130.4075 0001338  91.1559 268.9587 15.08842595 36931,6917.872,95.437,540.663,538.812,0.0
54084.0,STARLINK-5183,PAYLOAD,2023-06-16 20:25:15,15.08840411,0.0001329,53.216,129.2187,90.4502,269.6642,3.6185e-05,2.88e-06,0.0,0 STARLINK-5183,1 54084U 22136AK  23167.85087491  .00000288  00000-0  36185-4 0  9991,2 54084  53.2160 129.2187 0001329  90.4502 269.6642 15.08840411 36494,6917.879,95.438,540.664,538.825,0.0
54084.0,STARLINK-5183,PAYLOAD,2023-06-17 04:22:10,15.08845218,0.0001217,53.2159,127.733,92.1384,267.9747,7.7945e-05,9.53e-06,0.0,0 STARLINK-5183,1 54084U 22136AK  23168.18206977  .00000953  00000-0  77945-4 0  9998,2 54084  53.2159 127.7330 0001217  92.1384 267.9747 15.08845218 36541,6917.864,95.437,540.571,538.888,0.0
54084.0,STARLINK-5183,PAYLOAD,2023-06-17 20:16:03,15.08832398,0.000137,53.2167,124.7636,93.2054,266.9095,2.9928e-05,1.88e-06,0.0,0 STARLINK-5183,1 54084U 22136AK  23168.84448131  .00000188  00000-0  29928-4 0  9999,2 54084  53.2167 124.7636 0001370  93.2054 266.9095 15.08832398 36643,6917.904,95.438,540.716,538.821,0.0
54084.0,STARLINK-5183,PAYLOAD,2023-06-17 23:26:50,15.0882212,0.0001316,53.2169,124.1662,90.5834,269.5309,-0.00010419,-1.945e-05,0.0,0 STARLINK-5183,1 54084U 22136AK  23168.97697285 -.00001945  00000-0 -10419-3 0  9997,2 54084  53.2169 124.1662 0001316  90.5834 269.5309 15.08822120 37149,6917.935,95.439,540.71,538.89,0.0
54084.0,STARLINK-5183,PAYLOAD,2023-06-18 07:23:45,15.08827455,0.0001216,53.2162,122.6779,93.6223,266.4908,-5.8638e-05,-1.221e-05,0.0,0 STARLINK-5183,1 54084U 22136AK  23169.30817036 -.00001221  00000-0 -58638-4 0  9996,2 54084  53.2162 122.6779 0001216  93.6223 266.4908 15.08827455 37191,6917.919,95.438,540.625,538.943,0.0
54084.0,STARLINK-5183,PAYLOAD,2023-06-18 13:45:18,15.08832714,0.000123,53.2169,121.4889,91.8401,268.2732,-1.6349e-05,-5.48e-06,0.0,0 STARLINK-5183,1 54084U 22136AK  23169.57312746 -.00000548  00000-0 -16349-4 0  9997,2 54084  53.2169 121.4889 0001230  91.8401 268.2732 15.08832714 37235,6917.903,95.438,540.619,538.917,0.0
54084.0,STARLINK-5183,PAYLOAD,2023-06-19 05:39:08,15.08845357,0.0001189,53.2167,118.5147,89.5517,270.5612,6.1913e-05,6.98e-06,0.0,0 STARLINK-5183,1 54084U 22136AK  23170.23551825  .00000698  00000-0  61913-4 0  9996,2 54084  53.2167 118.5147 0001189  89.5517 270.5612 15.08845357 37333,6917.864,95.437,540.552,538.906,0.0
54084.0,STARLINK-5183,PAYLOAD,2023-06-19 13:36:04,15.08844261,0.0001193,53.2167,117.0282,93.6117,266.5011,4.8992e-05,4.92e-06,0.0,0 STARLINK-5183,1 54084U 22136AK  23170.56671947  .00000492  00000-0  48992-4 0  9994,2 54084  53.2167 117.0282 0001193  93.6117 266.5011 15.08844261 36907,6917.867,95.437,540.558,538.907,0.0
54084.0,STARLINK-5183,PAYLOAD,2023-06-19 23:08:23,15.08832629,0.0001205,53.2168,115.2439,92.3307,267.7823,0.00019173,2.764e-05,0.0,0 STARLINK-5183,1 54084U 22136AK  23170.96416475  .00002764  00000-0  19173-3 0  9993,2 54084  53.2168 115.2439 0001205  92.3307 267.7823 15.08832629 37442,6917.903,95.438,540.602,538.934,0.0
54084.0,STARLINK-5183,PAYLOAD,2023-06-20 05:29:55,15.08841778,0.0001227,53.2168,114.0543,92.7315,267.3818,0.00022953,3.367e-05,0.0,0 STARLINK-5183,1 54084U 22136AK  23171.22911911  .00003367  00000-0  22953-3 0  9998,2 54084  53.2168 114.0543 0001227  92.7315 267.3818 15.08841778 37481,6917.875,95.437,540.589,538.891,0.0
54084.0,STARLINK-5183,PAYLOAD,2023-06-20 13:26:51,15.0885125,0.0001292,53.217,112.5645,75.6269,284.4867,-0.00015462,-2.749e-05,0.0,0 STARLINK-5183,1 54084U 22136AK  23171.56032205 -.00002749  00000-0 -15462-3 0  9997,2 54084  53.2170 112.5645 0001292  75.6269 284.4867 15.08851250 37053,6917.846,95.437,540.605,538.817,0.0
54084.0,STARLINK-5183,PAYLOAD,2023-06-21 02:09:57,15.08840133,0.0001204,53.2158,110.183,91.8154,268.2976,4.6335e-05,4.5e-06,0.0,0 STARLINK-5183,1 54084U 22136AK  23172.09024493  .00000450  00000-0  46335-4 0  9995,2 54084  53.2158 110.1830 0001204  91.8154 268.2976 15.08840133 37616,6917.88,95.438,540.578,538.912,0.0
54084.0,STARLINK-5183,PAYLOAD,2023-06-21 13:17:38,15.08843122,0.0001221,53.2162,108.1033,99.1862,260.9268,-2.5006e-06,-3.28e-06,0.0,0 STARLINK-5183,1 54084U 22136AK  23172.55392349 -.00000328  00000-0 -25006-5 0  9993,2 54084  53.2162 108.1033 0001221  99.1862 260.9268 15.08843122 37208,6917.871,95.437,540.581,538.891,0.0
54084.0,STARLINK-5183,PAYLOAD,2023-06-22 05:11:30,15.08848612,0.0001265,53.2166,105.1309,97.854,262.2596,-1.876e-05,-5.87e-06,0.0,0 STARLINK-5183,1 54084U 22136AK  23173.21632117 -.00000587  00000-0 -18760-4 0  9992,2 54084  53.2166 105.1309 0001265  97.8540 262.2596 15.08848612 37782,6917.854,95.437,540.594,538.844,0.0
54084.0,STARLINK-5183,PAYLOAD,2023-06-22 19:29:58,15.08832915,0.0001447,53.2169,102.4553,97.1171,262.9986,0.00012599,1.717e-05,0.0,0 STARLINK-5183,1 54084U 22136AK  23173.81248733  .00001717  00000-0  12599-3 0  9992,2 54084  53.2169 102.4553 0001447  97.1171 262.9986 15.08832915 37870,6917.902,95.438,540.768,538.766,0.0
54084.0,STARLINK-5183,PAYLOAD,2023-06-23 01:51:30,15.08846529,0.0001454,53.2171,101.2661,99.6018,260.5139,9.5176e-05,1.227e-05,0.0,0 STARLINK-5183,1 54084U 22136AK  23174.07743926  .00001227  00000-0  95176-4 0  9994,2 54084  53.2171 101.2661 0001454  99.6018 260.5139 15.08846529 37910,6917.86,95.437,540.731,538.72,0.0
